start=new Date('2022-08-03T00:00:00.000Z').valueOf();
sats=[{"PERIOD":"91.533","ELEMENT_SET_NO":"999","RA_OF_ASC_NODE":"327.6778","REV_AT_EPOCH":"316","MEAN_MOTION":"15.73209252","TLE_LINE1":"1 53155U 22083Z   22214.58334491 -.00035091  00000-0 -24645-3 0  9996","FILE":"3527746","MEAN_MOTION_DDOT":"0.0000000000000","EPHEMERIS_TYPE":"0","CLASSIFICATION_TYPE":"U","TLE_LINE2":"2 53155  53.2184 327.6778 0003269 317.0541  54.4298 15.73209252  3163","MEAN_MOTION_DOT":"-0.00035091","ECCENTRICITY":"0.00032690","INCLINATION":"53.2184","NORAD_CAT_ID":"53155","ARG_OF_PERICENTER":"317.0541","RCS_SIZE":"LARGE","BSTAR":"-0.00024645000000","MEAN_ANOMALY":"54.4298","LAUNCH_DATE":"2022-07-17","EPOCH":"2022-08-02T14:00:01.000224","MEAN_ELEMENT_THEORY":"SGP4","OBJECT_NAME":"STARLINK-4088","GP_ID":"209432857","DECAY_DATE":null,"APOAPSIS":"351.933","REF_FRAME":"TEME","OBJECT_TYPE":"PAYLOAD","TIME_SYSTEM":"UTC","PERIAPSIS":"347.534","SITE":"AFETR","SEMIMAJOR_AXIS":"6727.869","COUNTRY_CODE":"US","CENTER_NAME":"EARTH","OBJECT_ID":"2022-083Z"},{"REF_FRAME":"TEME","APOAPSIS":"351.117","OBJECT_TYPE":"PAYLOAD","PERIAPSIS":"348.454","TIME_SYSTEM":"UTC","SITE":"AFETR","SEMIMAJOR_AXIS":"6727.921","CENTER_NAME":"EARTH","OBJECT_ID":"2022-083AA","COUNTRY_CODE":"US","BSTAR":"-0.00023916000000","MEAN_ANOMALY":"330.5384","LAUNCH_DATE":"2022-07-17","MEAN_ELEMENT_THEORY":"SGP4","EPOCH":"2022-08-02T14:00:01.000224","OBJECT_NAME":"STARLINK-4087","DECAY_DATE":null,"GP_ID":"209432347","TLE_LINE2":"2 53156  53.2185 327.6791 0001979  40.3891 330.5384 15.73191068  3169","MEAN_MOTION_DOT":"-0.00034039","INCLINATION":"53.2185","ECCENTRICITY":"0.00019790","NORAD_CAT_ID":"53156","ARG_OF_PERICENTER":"40.3891","RCS_SIZE":"LARGE","RA_OF_ASC_NODE":"327.6791","ELEMENT_SET_NO":"999","PERIOD":"91.534","REV_AT_EPOCH":"316","TLE_LINE1":"1 53156U 22083AA  22214.58334491 -.00034039  00000-0 -23916-3 0  9998","MEAN_MOTION":"15.73191068","MEAN_MOTION_DDOT":"0.0000000000000","FILE":"3527746","CLASSIFICATION_TYPE":"U","EPHEMERIS_TYPE":"0"},{"REV_AT_EPOCH":"316","ELEMENT_SET_NO":"999","RA_OF_ASC_NODE":"327.6760","PERIOD":"91.534","CLASSIFICATION_TYPE":"U","EPHEMERIS_TYPE":"0","MEAN_MOTION_DDOT":"0.0000000000000","FILE":"3527746","TLE_LINE1":"1 53157U 22083AB  22214.58334491 -.00002714  00000-0 -14931-4 0  9992","MEAN_MOTION":"15.73181623","INCLINATION":"53.2185","ECCENTRICITY":"0.00018120","MEAN_MOTION_DOT":"-0.00002714","TLE_LINE2":"2 53157  53.2185 327.6760 0001812  38.8353 333.8528 15.73181623  3169","RCS_SIZE":"LARGE","ARG_OF_PERICENTER":"38.8353","NORAD_CAT_ID":"53157","OBJECT_NAME":"STARLINK-4093","LAUNCH_DATE":"2022-07-17","EPOCH":"2022-08-02T14:00:01.000224","MEAN_ELEMENT_THEORY":"SGP4","MEAN_ANOMALY":"333.8528","BSTAR":"-0.00001493100000","DECAY_DATE":null,"GP_ID":"209432855","PERIAPSIS":"348.593","TIME_SYSTEM":"UTC","OBJECT_TYPE":"PAYLOAD","REF_FRAME":"TEME","APOAPSIS":"351.032","CENTER_NAME":"EARTH","OBJECT_ID":"2022-083AB","COUNTRY_CODE":"US","SEMIMAJOR_AXIS":"6727.948","SITE":"AFETR"},{"RCS_SIZE":"LARGE","ARG_OF_PERICENTER":"35.0652","NORAD_CAT_ID":"53158","ECCENTRICITY":"0.00017210","INCLINATION":"53.2181","MEAN_MOTION_DOT":"-0.00074459","TLE_LINE2":"2 53158  53.2181 327.6793 0001721  35.0652 335.2144 15.73241638  3165","EPHEMERIS_TYPE":"0","CLASSIFICATION_TYPE":"U","FILE":"3527746","MEAN_MOTION_DDOT":"0.0000000000000","MEAN_MOTION":"15.73241638","TLE_LINE1":"1 53158U 22083AC  22214.58334491 -.00074459  00000-0 -52983-3 0  9996","REV_AT_EPOCH":"316","PERIOD":"91.531","RA_OF_ASC_NODE":"327.6793","ELEMENT_SET_NO":"999","COUNTRY_CODE":"US","OBJECT_ID":"2022-083AC","CENTER_NAME":"EARTH","SEMIMAJOR_AXIS":"6727.776","SITE":"AFETR","TIME_SYSTEM":"UTC","PERIAPSIS":"348.484","OBJECT_TYPE":"PAYLOAD","APOAPSIS":"350.799","REF_FRAME":"TEME","GP_ID":"209432861","DECAY_DATE":null,"OBJECT_NAME":"STARLINK-4054","EPOCH":"2022-08-02T14:00:01.000224","LAUNCH_DATE":"2022-07-17","MEAN_ELEMENT_THEORY":"SGP4","MEAN_ANOMALY":"335.2144","BSTAR":"-0.00052983000000"},{"ECCENTRICITY":"0.00028080","INCLINATION":"53.2191","TLE_LINE2":"2 53159  53.2191 327.6751 0002808 321.8971  52.0010 15.73235549  3168","MEAN_MOTION_DOT":"-0.00095853","ARG_OF_PERICENTER":"321.8971","RCS_SIZE":"LARGE","NORAD_CAT_ID":"53159","REV_AT_EPOCH":"316","PERIOD":"91.531","RA_OF_ASC_NODE":"327.6751","ELEMENT_SET_NO":"999","FILE":"3527556","MEAN_MOTION_DDOT":"0.0000000000000","EPHEMERIS_TYPE":"0","CLASSIFICATION_TYPE":"U","MEAN_MOTION":"15.73235549","TLE_LINE1":"1 53159U 22083AD  22214.58334491 -.00095853  00000-0 -68511-3 0  9992","OBJECT_TYPE":"PAYLOAD","TIME_SYSTEM":"UTC","PERIAPSIS":"347.770","APOAPSIS":"351.548","REF_FRAME":"TEME","COUNTRY_CODE":"US","CENTER_NAME":"EARTH","OBJECT_ID":"2022-083AD","SITE":"AFETR","SEMIMAJOR_AXIS":"6727.794","EPOCH":"2022-08-02T14:00:01.000224","LAUNCH_DATE":"2022-07-17","MEAN_ELEMENT_THEORY":"SGP4","OBJECT_NAME":"STARLINK-4111","BSTAR":"-0.00068511000000","MEAN_ANOMALY":"52.0010","GP_ID":"209402069","DECAY_DATE":null},{"OBJECT_TYPE":"PAYLOAD","TIME_SYSTEM":"UTC","PERIAPSIS":"348.502","APOAPSIS":"350.786","REF_FRAME":"TEME","COUNTRY_CODE":"US","CENTER_NAME":"EARTH","OBJECT_ID":"2022-083AE","SITE":"AFETR","SEMIMAJOR_AXIS":"6727.779","MEAN_ELEMENT_THEORY":"SGP4","LAUNCH_DATE":"2022-07-17","EPOCH":"2022-08-02T14:00:01.000224","OBJECT_NAME":"STARLINK-4096","BSTAR":"-0.00068093000000","MEAN_ANOMALY":"341.5419","GP_ID":"209432859","DECAY_DATE":null,"ECCENTRICITY":"0.00016970","INCLINATION":"53.2191","TLE_LINE2":"2 53160  53.2191 327.6787 0001697  30.5493 341.5419 15.73240820  3164","MEAN_MOTION_DOT":"-0.00095280","ARG_OF_PERICENTER":"30.5493","RCS_SIZE":"LARGE","NORAD_CAT_ID":"53160","REV_AT_EPOCH":"316","PERIOD":"91.531","ELEMENT_SET_NO":"999","RA_OF_ASC_NODE":"327.6787","FILE":"3527746","MEAN_MOTION_DDOT":"0.0000000000000","EPHEMERIS_TYPE":"0","CLASSIFICATION_TYPE":"U","MEAN_MOTION":"15.73240820","TLE_LINE1":"1 53160U 22083AE  22214.58334491 -.00095280  00000-0 -68093-3 0  9993"},{"CENTER_NAME":"EARTH","OBJECT_ID":"2022-083AF","COUNTRY_CODE":"US","SEMIMAJOR_AXIS":"6727.817","SITE":"AFETR","PERIAPSIS":"348.345","TIME_SYSTEM":"UTC","OBJECT_TYPE":"PAYLOAD","REF_FRAME":"TEME","APOAPSIS":"351.020","GP_ID":"209432268","DECAY_DATE":null,"OBJECT_NAME":"STARLINK-4055","EPOCH":"2022-08-02T14:00:01.000224","LAUNCH_DATE":"2022-07-17","MEAN_ELEMENT_THEORY":"SGP4","MEAN_ANOMALY":"337.4597","BSTAR":"-0.00054149000000","RCS_SIZE":"LARGE","ARG_OF_PERICENTER":"38.2207","NORAD_CAT_ID":"53161","INCLINATION":"53.2183","ECCENTRICITY":"0.00019880","MEAN_MOTION_DOT":"-0.00076027","TLE_LINE2":"2 53161  53.2183 327.6686 0001988  38.2207 337.4597 15.73227399  3162","CLASSIFICATION_TYPE":"U","EPHEMERIS_TYPE":"0","MEAN_MOTION_DDOT":"0.0000000000000","FILE":"3527742","TLE_LINE1":"1 53161U 22083AF  22214.58334491 -.00076027  00000-0 -54149-3 0  9999","MEAN_MOTION":"15.73227399","REV_AT_EPOCH":"316","ELEMENT_SET_NO":"999","RA_OF_ASC_NODE":"327.6686","PERIOD":"91.532"},{"NORAD_CAT_ID":"53162","RCS_SIZE":"LARGE","ARG_OF_PERICENTER":"34.6384","MEAN_MOTION_DOT":"-0.00037643","TLE_LINE2":"2 53162  53.2187 327.6749 0001830  34.6384 338.6469 15.73197153  3164","INCLINATION":"53.2187","ECCENTRICITY":"0.00018300","TLE_LINE1":"1 53162U 22083AG  22214.58334491 -.00037643  00000-0 -26500-3 0  9991","MEAN_MOTION":"15.73197153","CLASSIFICATION_TYPE":"U","EPHEMERIS_TYPE":"0","MEAN_MOTION_DDOT":"0.0000000000000","FILE":"3527742","ELEMENT_SET_NO":"999","RA_OF_ASC_NODE":"327.6749","PERIOD":"91.533","REV_AT_EPOCH":"316","SEMIMAJOR_AXIS":"6727.903","SITE":"AFETR","OBJECT_ID":"2022-083AG","CENTER_NAME":"EARTH","COUNTRY_CODE":"US","REF_FRAME":"TEME","APOAPSIS":"350.999","PERIAPSIS":"348.537","TIME_SYSTEM":"UTC","OBJECT_TYPE":"PAYLOAD","GP_ID":"209432264","DECAY_DATE":null,"MEAN_ANOMALY":"338.6469","BSTAR":"-0.00026500000000","OBJECT_NAME":"STARLINK-4114","EPOCH":"2022-08-02T14:00:01.000224","LAUNCH_DATE":"2022-07-17","MEAN_ELEMENT_THEORY":"SGP4"},{"DECAY_DATE":null,"GP_ID":"209431606","MEAN_ANOMALY":"327.5861","BSTAR":"-0.00014676000000","OBJECT_NAME":"STARLINK-4104","LAUNCH_DATE":"2022-07-17","MEAN_ELEMENT_THEORY":"SGP4","EPOCH":"2022-08-02T14:00:01.000224","SEMIMAJOR_AXIS":"6727.924","SITE":"AFETR","COUNTRY_CODE":"US","CENTER_NAME":"EARTH","OBJECT_ID":"2022-083AH","APOAPSIS":"351.070","REF_FRAME":"TEME","TIME_SYSTEM":"UTC","PERIAPSIS":"348.507","OBJECT_TYPE":"PAYLOAD","MEAN_MOTION":"15.73190024","TLE_LINE1":"1 53163U 22083AH  22214.58334491 -.00021158  00000-0 -14676-3 0  9997","EPHEMERIS_TYPE":"0","CLASSIFICATION_TYPE":"U","FILE":"3527702","MEAN_MOTION_DDOT":"0.0000000000000","PERIOD":"91.534","ELEMENT_SET_NO":"999","RA_OF_ASC_NODE":"327.6672","REV_AT_EPOCH":"316","NORAD_CAT_ID":"53163","RCS_SIZE":"LARGE","ARG_OF_PERICENTER":"49.2918","MEAN_MOTION_DOT":"-0.00021158","TLE_LINE2":"2 53163  53.2185 327.6672 0001905  49.2918 327.5861 15.73190024  3169","ECCENTRICITY":"0.00019050","INCLINATION":"53.2185"},{"MEAN_MOTION":"15.73227480","TLE_LINE1":"1 53164U 22083AJ  22214.58334491 -.00082807  00000-0 -59067-3 0  9999","FILE":"3527539","MEAN_MOTION_DDOT":"0.0000000000000","EPHEMERIS_TYPE":"0","CLASSIFICATION_TYPE":"U","PERIOD":"91.532","RA_OF_ASC_NODE":"327.6687","ELEMENT_SET_NO":"999","REV_AT_EPOCH":"316","NORAD_CAT_ID":"53164","ARG_OF_PERICENTER":"40.9602","RCS_SIZE":"LARGE","TLE_LINE2":"2 53164  53.2180 327.6687 0001762  40.9602 334.1141 15.73227480  3162","MEAN_MOTION_DOT":"-0.00082807","ECCENTRICITY":"0.00017620","INCLINATION":"53.2180","DECAY_DATE":null,"GP_ID":"209401443","BSTAR":"-0.00059067000000","MEAN_ANOMALY":"334.1141","EPOCH":"2022-08-02T14:00:01.000224","LAUNCH_DATE":"2022-07-17","MEAN_ELEMENT_THEORY":"SGP4","OBJECT_NAME":"STARLINK-4116","SITE":"AFETR","SEMIMAJOR_AXIS":"6727.817","COUNTRY_CODE":"US","CENTER_NAME":"EARTH","OBJECT_ID":"2022-083AJ","APOAPSIS":"350.867","REF_FRAME":"TEME","OBJECT_TYPE":"PAYLOAD","TIME_SYSTEM":"UTC","PERIAPSIS":"348.496"}];
